{
  "norad_id": 66280,
  "name": "STARLINK-35726",
  "history": [
    {
      "epoch": "2026-03-28T17:33:52.000704",
      "apogee_km": 476.10367265199875,
      "perigee_km": 474.35441950239783,
      "latitude_deg": 50.026119902066974,
      "longitude_deg": 158.25777856004424,
      "semi_major_axis_km": 6853.366046077198,
      "eccentricity": 0.00012762,
      "inclination_deg": 53.1579,
      "raan_deg": 102.6724,
      "arg_perigee_deg": 96.2753,
      "mean_anomaly_deg": 263.8393,
      "mean_motion_rev_day": 15.30195319
    },
    {
      "epoch": "2026-03-29T04:32:14.358912",
      "apogee_km": 475.61744315280066,
      "perigee_km": 474.81697138139316,
      "latitude_deg": 10.235339057764074,
      "longitude_deg": -157.85071232006885,
      "semi_major_axis_km": 6853.354207267097,
      "eccentricity": 5.84e-05,
      "inclination_deg": 53.157,
      "raan_deg": 100.5459,
      "arg_perigee_deg": 55.6268,
      "mean_anomaly_deg": 304.4788,
      "mean_motion_rev_day": 15.30199284
    }
  ]
}